[
  {
    "Id": 1,
    "Name": "Morse Micah",
    "Geburtsdatum": "15.09.1996",
    "PLZ": 6025
  },
  {
    "Id": 2,
    "Name": "Candy Bucktharp",
    "Geburtsdatum": "21.12.2004",
    "PLZ": 7553
  },
  {
    "Id": 3,
    "Name": "Sonni Batie",
    "Geburtsdatum": "24.12.1992",
    "PLZ": 6591
  },
  {
    "Id": 4,
    "Name": "Margaux Higgonet",
    "Geburtsdatum": "08.10.1992",
    "PLZ": 7463
  },
  {
    "Id": 5,
    "Name": "Tabbitha Hedditeh",
    "Geburtsdatum": "08.12.1992",
    "PLZ": 5423
  },
  {
    "Id": 6,
    "Name": "Abrahan Abrahamowitcz",
    "Geburtsdatum": "09.04.2004",
    "PLZ": 4319
  },
  {
    "Id": 7,
    "Name": "Tiphani Philp",
    "Geburtsdatum": "17.02.2004",
    "PLZ": 4696
  },
  {
    "Id": 8,
    "Name": "Morena Haith",
    "Geburtsdatum": "26.07.1990",
    "PLZ": 5135
  },
  {
    "Id": 9,
    "Name": "Judy Hutchinson",
    "Geburtsdatum": "12.02.2001",
    "PLZ": 7435
  },
  {
    "Id": 10,
    "Name": "Wilow Iwanowski",
    "Geburtsdatum": "13.05.1995",
    "PLZ": 7784
  },
  {
    "Id": 11,
    "Name": "Filia Olsson",
    "Geburtsdatum": "05.04.1995",
    "PLZ": 7895
  },
  {
    "Id": 12,
    "Name": "Karrah Surphliss",
    "Geburtsdatum": "21.06.1990",
    "PLZ": 5924
  },
  {
    "Id": 13,
    "Name": "Ezechiel Milnes",
    "Geburtsdatum": "20.11.1990",
    "PLZ": 4823
  },
  {
    "Id": 14,
    "Name": "Etti Osant",
    "Geburtsdatum": "23.10.1998",
    "PLZ": 7474
  },
  {
    "Id": 15,
    "Name": "Vera Rickett",
    "Geburtsdatum": "22.03.2000",
    "PLZ": 7071
  },
  {
    "Id": 16,
    "Name": "Kessia Padly",
    "Geburtsdatum": "07.02.2002",
    "PLZ": 6781
  },
  {
    "Id": 17,
    "Name": "Wynne Walch",
    "Geburtsdatum": "23.11.1992",
    "PLZ": 7410
  },
  {
    "Id": 18,
    "Name": "Fenelia Kalaher",
    "Geburtsdatum": "11.10.2000",
    "PLZ": 4402
  },
  {
    "Id": 19,
    "Name": "Zarla Twittey",
    "Geburtsdatum": "01.07.2003",
    "PLZ": 6163
  },
  {
    "Id": 20,
    "Name": "Lyndsey Fromant",
    "Geburtsdatum": "16.06.2001",
    "PLZ": 4305
  }
]